OBJECT_NAME,OBJECT_ID,EPOCH,MEAN_MOTION,ECCENTRICITY,INCLINATION,RA_OF_ASC_NODE,ARG_OF_PERICENTER,MEAN_ANOMALY,EPHEMERIS_TYPE,CLASSIFICATION_TYPE,NORAD_CAT_ID,ELEMENT_SET_NO,REV_AT_EPOCH,BSTAR,MEAN_MOTION_DOT,MEAN_MOTION_DDOT
STARLINK-37686,2026-127AD,2026-06-16T16:00:00.999072,15.93314375,.0001165,53.1579,264.5997,59.0760,104.9180,0,U,69470,999,255,-.55656E-2,-.2010408E-1,.11133E-2
STARLINK-37451,2026-127AE,2026-06-16T16:00:00.999072,15.93531958,.0001509,53.1578,264.5872,58.2364,111.8100,0,U,69471,999,255,-.54727E-2,-.1999916E-1,.11049E-2
DTC TEST OBJECT A,2026-128A,2026-06-17T02:29:37.717728,15.55834294,.0008446,54.9946,305.4138,288.8690,71.1429,0,U,69472,999,121,.32795E-3,.22659E-3,0
DTC TEST OBJECT B,2026-128B,2026-06-17T02:27:17.126784,15.56288859,.0008506,55.0034,305.4096,289.7044,70.3074,0,U,69473,999,120,.41924E-3,.29627E-3,0
TJS-25,2026-129A,2026-06-11T11:34:53.014656,1.72502163,.7751889,16.5302,30.5351,199.9639,91.9387,0,U,69474,999,7,.19774E-2,.7407E-4,0
2026-132A,2026-132A,2026-06-17T10:07:51.741696,14.99044812,.0012504,97.6908,232.0949,269.8950,90.0840,0,U,69502,999,81,.42731E-4,.459E-5,0
2026-132B,2026-132B,2026-06-17T11:43:30.487584,14.99134964,.0012411,97.6939,232.1634,271.9225,88.0577,0,U,69503,999,82,.26267E-4,.26E-5,0
BRO-22,2026-132C,2026-06-17T03:39:52.966368,14.99757939,.0013885,97.6879,231.8305,284.9851,74.9835,0,U,69504,999,77,.50442E-4,.564E-5,0
2026-132D,2026-132D,2026-06-16T03:33:11.183904,15.01725287,.00117095,97.6817,230.8394,297.0190,62.9838,0,U,69505,999,62,.11328567E-3,.1415E-4,0
2026-132E,2026-132E,2026-06-17T09:58:28.127712,15.00878988,.001273,97.6943,232.1097,306.9523,53.0535,0,U,69506,999,80,.12198E-3,.1494E-4,0
2026-132F,2026-132F,2026-06-13T09:58:10.881408,15.01040982,.00109152,97.6869,228.1362,319.8335,40.2082,0,U,69507,999,20,.25250362E-3,.317E-4,0
STARLINK-37536,2026-133A,2026-06-16T20:00:01.999008,16.09769188,.0000559,53.1606,324.8173,59.5001,99.8327,0,U,69508,999,191,-.14089E-2,-.1341643E-1,.63494E-3
STARLINK-37341,2026-133B,2026-06-16T20:00:01.999008,16.09984093,.0000596,53.1607,324.8139,70.2369,90.7497,0,U,69509,999,191,-.13702E-2,-.1323587E-1,.62105E-3
STARLINK-36536,2026-133C,2026-06-16T20:00:01.999008,16.10237936,.000065,53.1607,324.8108,68.3984,94.1407,0,U,69510,999,185,-.13269E-2,-.1303653E-1,.60598E-3
STARLINK-37420,2026-133D,2026-06-16T20:00:01.999008,16.10798910,.0000538,53.1605,324.8045,76.2331,89.2678,0,U,69511,999,180,-.12311E-2,-.1255897E-1,.57007E-3
STARLINK-37511,2026-133E,2026-06-16T20:00:01.999008,16.10524822,.0000672,53.1608,324.8079,78.1650,85.8252,0,U,69512,999,180,-.12709E-2,-.1272983E-1,.58228E-3
STARLINK-37552,2026-133F,2026-06-16T20:00:01.999008,16.11031128,.0000711,53.1605,324.8017,60.3609,106.7359,0,U,69513,999,180,-.11881E-2,-.1231309E-1,.55149E-3
STARLINK-37607,2026-133G,2026-06-16T20:00:01.999008,16.11198140,.000069,53.1606,324.7976,66.5425,102.3369,0,U,69514,999,180,-.11664E-2,-.1222552E-1,.54552E-3
STARLINK-37232,2026-133H,2026-06-16T20:00:01.999008,16.11435750,.0000572,53.1606,324.7947,92.2145,78.2582,0,U,69515,999,180,-.11301E-2,-.1203744E-1,.53194E-3
STARLINK-37323,2026-133J,2026-06-16T20:00:01.999008,16.11655501,.000047,53.1605,324.7910,91.0897,81.0143,0,U,69516,999,180,-.10929E-2,-.1181758E-1,.51583E-3
STARLINK-37357,2026-133K,2026-06-16T20:00:01.999008,16.11795371,.0000415,53.1606,324.7871,70.9359,103.0168,0,U,69517,999,180,-.10763E-2,-.11749E-1,.51132E-3
STARLINK-37408,2026-133L,2026-06-16T20:00:01.999008,16.11998911,.0000429,53.1606,324.7837,78.4039,97.2295,0,U,69518,999,180,-.10443E-2,-.1156102E-1,.49783E-3
STARLINK-37570,2026-133M,2026-06-16T20:00:01.999008,16.12524652,.0000576,53.1606,324.7772,72.8842,105.8193,0,U,69519,999,180,-.9735E-3,-.1117454E-1,.4712E-3
STARLINK-37510,2026-133N,2026-06-16T20:00:01.999008,16.12263257,.0000432,53.1604,324.7811,88.9406,88.2021,0,U,69520,999,180,-.99973E-3,-.1127146E-1,.47703E-3
STARLINK-37586,2026-133P,2026-06-16T20:00:01.999008,16.12898519,.0000474,53.1604,324.7704,76.2663,105.8831,0,U,69521,999,180,-.92161E-3,-.1085741E-1,.4494E-3
STARLINK-37379,2026-133Q,2026-06-16T20:00:01.999008,16.13046715,.0000561,53.1605,324.7665,75.0758,108.9019,0,U,69522,999,185,-.9053E-3,-.1077576E-1,.44415E-3
STARLINK-37429,2026-133R,2026-06-16T20:00:01.999008,16.13190391,.0000634,53.1604,324.7625,69.2190,116.6016,0,U,69523,999,185,-.88979E-3,-.1069779E-1,.43917E-3
STARLINK-37352,2026-133S,2026-06-16T20:00:01.999008,16.13435818,.0000438,53.1604,324.7595,81.9079,105.4751,0,U,69524,999,185,-.85282E-3,-.1043217E-1,.42097E-3
STARLINK-37490,2026-133T,2026-06-16T20:00:01.999008,16.13914209,.000031,53.1603,324.7529,67.9827,122.5858,0,U,69525,999,185,-.79401E-3,-.100464E-1,.39572E-3
STARLINK-37438,2026-133U,2026-06-16T20:00:01.999008,16.13632337,.0001081,53.1605,324.7565,68.3314,120.7250,0,U,69526,999,185,-.81006E-3,-.1005097E-1,.39456E-3
